SENTINEL-6              
1 46984U 20086A   24075.93089233 -.00000057  00000+0  17298-4 0  9995
2 46984  66.0422  44.9605 0007859 271.2335  88.7780 12.80929113154883
